ONEWEB-0223             
1 48768U 21045B   25356.20786821  .00000274  00000+0  69505-3 0  9990
2 48768  87.9010 294.4989 0001979  63.9453 296.1881 13.15549554221137
ONEWEB-0230             
1 48769U 21045C   25355.34270240  .00000061  00000+0  12826-3 0  9996
2 48769  87.9001 294.7004 0001931  80.6205 279.5143 13.15550006221284
ONEWEB-0237             
1 48770U 21045D   25356.24430093 -.00000108  00000+0 -31962-3 0  9998
2 48770  87.9007 294.5212 0002005  70.6263 289.5084 13.15550333221128
ONEWEB-0235             
1 48771U 21045E   25356.21894722  .00000146  00000+0  35464-3 0  9990
2 48771  87.9009 294.4975 0002034  63.7355 296.3984 13.15549642221118
ONEWEB-0242             
1 48772U 21045F   25356.21261086  .00000259  00000+0  65308-3 0  9997
2 48772  87.9013 294.4929 0001933  75.5236 284.6109 13.15550775221151
ONEWEB-0241             
1 48773U 21045G   25356.12388043  .00000145  00000+0  35036-3 0  9990
2 48773  87.8999 294.5466 0001763  61.7713 298.3595 13.15545858221055
ONEWEB-0243             
1 48774U 21045H   25356.23163915  .00000910  00000+0  23823-2 0  9992
2 48774  87.9012 294.5354 0002138  70.0466 290.0895 13.15543461221098
ONEWEB-0222             
1 48775U 21045J   25355.83470942  .00000083  00000+0  18543-3 0  9994
2 48775  87.9005 294.5694 0001812  71.8968 288.2360 13.15548011221083
ONEWEB-0244             
1 48776U 21045K   25356.24112786 -.00000087  00000+0 -26457-3 0  9999
2 48776  87.9021 294.4750 0001883  72.3020 287.8316 13.15551323221702
ONEWEB-0247             
1 48777U 21045L   25356.23796686  .00000000  00000+0 -34960-4 0  9999
2 48777  87.9012 294.5301 0002517  58.8788 301.2589 13.15549700221148
ONEWEB-0245             
1 48778U 21045M   25356.23321433 -.00000013  00000+0 -69001-4 0  9993
2 48778  87.9004 294.4959 0001719  69.6386 290.4928 13.15549544221114
ONEWEB-0229             
1 48779U 21045N   25356.22845949  .00000020  00000+0  20370-4 0  9998
2 48779  87.9007 294.4956 0001971  75.6483 284.4866 13.15549619221140
ONEWEB-0228             
1 48780U 21045P   25356.26188141  .00000055  00000+0  11079-3 0  9991
2 48780  87.9007 294.4739 0001858  73.7564 286.3771 13.15547744221068
ONEWEB-0232             
1 48781U 21045Q   25356.23639434  .00000034  00000+0  57404-4 0  9995
2 48781  87.9024 294.4721 0001848  74.7459 285.3876 13.15548847221387
ONEWEB-0231             
1 48782U 21045R   25355.75785976  .00000175  00000+0  43017-3 0  9995
2 48782  87.8992 294.6094 0001988  71.5925 288.5422 13.15549918221016
ONEWEB-0234             
1 48783U 21045S   25356.25209411 -.00000111  00000+0 -32822-3 0  9991
2 48783  87.8999 294.4839 0000976  85.6195 274.5047 13.15548850221214
ONEWEB-0238             
1 48784U 21045T   25356.25237449 -.00000140  00000+0 -40580-3 0  9996
2 48784  87.9000 294.4766 0001285  77.0042 283.1232 13.15549310221111
