[{"OBJECT_NAME":"ONEWEB-0223","OBJECT_ID":"2021-045B","EPOCH":"2025-12-22T04:59:19.813344","MEAN_MOTION":13.15549554,"ECCENTRICITY":0.00019798,"INCLINATION":87.901,"RA_OF_ASC_NODE":294.4989,"ARG_OF_PERICENTER":63.9453,"MEAN_ANOMALY":296.1881,"EPHEMERIS_TYPE":0,"CLASSIFICATION_TYPE":"U","NORAD_CAT_ID":48768,"ELEMENT_SET_NO":999,"REV_AT_EPOCH":22113,"BSTAR":0.00069505263,"MEAN_MOTION_DOT":2.74e-6,"MEAN_MOTION_DDOT":0},{"OBJECT_NAME":"ONEWEB-0230","OBJECT_ID":"2021-045C","EPOCH":"2025-12-21T08:13:29.487360","MEAN_MOTION":13.15550006,"ECCENTRICITY":0.00019318,"INCLINATION":87.9001,"RA_OF_ASC_NODE":294.7004,"ARG_OF_PERICENTER":80.6205,"MEAN_ANOMALY":279.5143,"EPHEMERIS_TYPE":0,"CLASSIFICATION_TYPE":"U","NORAD_CAT_ID":48769,"ELEMENT_SET_NO":999,"REV_AT_EPOCH":22128,"BSTAR":0.00012826098,"MEAN_MOTION_DOT":6.1e-7,"MEAN_MOTION_DDOT":0},{"OBJECT_NAME":"ONEWEB-0237","OBJECT_ID":"2021-045D","EPOCH":"2025-12-22T05:51:47.600352","MEAN_MOTION":13.15550333,"ECCENTRICITY":0.00020052,"INCLINATION":87.9007,"RA_OF_ASC_NODE":294.5212,"ARG_OF_PERICENTER":70.6263,"MEAN_ANOMALY":289.5084,"EPHEMERIS_TYPE":0,"CLASSIFICATION_TYPE":"U","NORAD_CAT_ID":48770,"ELEMENT_SET_NO":999,"REV_AT_EPOCH":22112,"BSTAR":-0.00031961557,"MEAN_MOTION_DOT":-1.08e-6,"MEAN_MOTION_DDOT":0},{"OBJECT_NAME":"ONEWEB-0235","OBJECT_ID":"2021-045E","EPOCH":"2025-12-22T05:15:17.039808","MEAN_MOTION":13.15549642,"ECCENTRICITY":0.0002034,"INCLINATION":87.9009,"RA_OF_ASC_NODE":294.4975,"ARG_OF_PERICENTER":63.7355,"MEAN_ANOMALY":296.3984,"EPHEMERIS_TYPE":0,"CLASSIFICATION_TYPE":"U","NORAD_CAT_ID":48771,"ELEMENT_SET_NO":999,"REV_AT_EPOCH":22111,"BSTAR":0.00035464154,"MEAN_MOTION_DOT":1.46e-6,"MEAN_MOTION_DDOT":0},{"OBJECT_NAME":"ONEWEB-0242","OBJECT_ID":"2021-045F","EPOCH":"2025-12-22T05:06:09.578304","MEAN_MOTION":13.15550775,"ECCENTRICITY":0.00019333,"INCLINATION":87.9013,"RA_OF_ASC_NODE":294.4929,"ARG_OF_PERICENTER":75.5236,"MEAN_ANOMALY":284.6109,"EPHEMERIS_TYPE":0,"CLASSIFICATION_TYPE":"U","NORAD_CAT_ID":48772,"ELEMENT_SET_NO":999,"REV_AT_EPOCH":22115,"BSTAR":0.00065307671,"MEAN_MOTION_DOT":2.59e-6,"MEAN_MOTION_DDOT":0},{"OBJECT_NAME":"ONEWEB-0241","OBJECT_ID":"2021-045G","EPOCH":"2025-12-22T02:58:23.269152","MEAN_MOTION":13.15545858,"ECCENTRICITY":0.00017631,"INCLINATION":87.8999,"RA_OF_ASC_NODE":294.5466,"ARG_OF_PERICENTER":61.7713,"MEAN_ANOMALY":298.3595,"EPHEMERIS_TYPE":0,"CLASSIFICATION_TYPE":"U","NORAD_CAT_ID":48773,"ELEMENT_SET_NO":999,"REV_AT_EPOCH":22105,"BSTAR":0.00035035777,"MEAN_MOTION_DOT":1.45e-6,"MEAN_MOTION_DDOT":0},{"OBJECT_NAME":"ONEWEB-0243","OBJECT_ID":"2021-045H","EPOCH":"2025-12-22T05:33:33.622560","MEAN_MOTION":13.15543461,"ECCENTRICITY":0.00021382,"INCLINATION":87.9012,"RA_OF_ASC_NODE":294.5354,"ARG_OF_PERICENTER":70.0466,"MEAN_ANOMALY":290.0895,"EPHEMERIS_TYPE":0,"CLASSIFICATION_TYPE":"U","NORAD_CAT_ID":48774,"ELEMENT_SET_NO":999,"REV_AT_EPOCH":22109,"BSTAR":0.0023822633,"MEAN_MOTION_DOT":9.1e-6,"MEAN_MOTION_DDOT":0},{"OBJECT_NAME":"ONEWEB-0222","OBJECT_ID":"2021-045J","EPOCH":"2025-12-21T20:01:58.893888","MEAN_MOTION":13.15548011,"ECCENTRICITY":0.00018127,"INCLINATION":87.9005,"RA_OF_ASC_NODE":294.5694,"ARG_OF_PERICENTER":71.8968,"MEAN_ANOMALY":288.236,"EPHEMERIS_TYPE":0,"CLASSIFICATION_TYPE":"U","NORAD_CAT_ID":48775,"ELEMENT_SET_NO":999,"REV_AT_EPOCH":22108,"BSTAR":0.00018543221,"MEAN_MOTION_DOT":8.3e-7,"MEAN_MOTION_DDOT":0},{"OBJECT_NAME":"ONEWEB-0244","OBJECT_ID":"2021-045K","EPOCH":"2025-12-22T05:47:13.447104","MEAN_MOTION":13.15551323,"ECCENTRICITY":0.00018839,"INCLINATION":87.9021,"RA_OF_ASC_NODE":294.475,"ARG_OF_PERICENTER":72.302,"MEAN_ANOMALY":287.8316,"EPHEMERIS_TYPE":0,"CLASSIFICATION_TYPE":"U","NORAD_CAT_ID":48776,"ELEMENT_SET_NO":999,"REV_AT_EPOCH":22170,"BSTAR":-0.00026456507,"MEAN_MOTION_DOT":-8.7e-7,"MEAN_MOTION_DDOT":0},{"OBJECT_NAME":"ONEWEB-0247","OBJECT_ID":"2021-045L","EPOCH":"2025-12-22T05:42:40.336704","MEAN_MOTION":13.155497,"ECCENTRICITY":0.00025175,"INCLINATION":87.9012,"RA_OF_ASC_NODE":294.5301,"ARG_OF_PERICENTER":58.8788,"MEAN_ANOMALY":301.2589,"EPHEMERIS_TYPE":0,"CLASSIFICATION_TYPE":"U","NORAD_CAT_ID":48777,"ELEMENT_SET_NO":999,"REV_AT_EPOCH":22114,"BSTAR":-3.4960324e-5,"MEAN_MOTION_DOT":0,"MEAN_MOTION_DDOT":0},{"OBJECT_NAME":"ONEWEB-0245","OBJECT_ID":"2021-045M","EPOCH":"2025-12-22T05:35:49.718112","MEAN_MOTION":13.15549544,"ECCENTRICITY":0.00017194,"INCLINATION":87.9004,"RA_OF_ASC_NODE":294.4959,"ARG_OF_PERICENTER":69.6386,"MEAN_ANOMALY":290.4928,"EPHEMERIS_TYPE":0,"CLASSIFICATION_TYPE":"U","NORAD_CAT_ID":48778,"ELEMENT_SET_NO":999,"REV_AT_EPOCH":22111,"BSTAR":-6.9001454e-5,"MEAN_MOTION_DOT":-1.3e-7,"MEAN_MOTION_DDOT":0},{"OBJECT_NAME":"ONEWEB-0229","OBJECT_ID":"2021-045N","EPOCH":"2025-12-22T05:28:58.899936","MEAN_MOTION":13.15549619,"ECCENTRICITY":0.00019717,"INCLINATION":87.9007,"RA_OF_ASC_NODE":294.4956,"ARG_OF_PERICENTER":75.6483,"MEAN_ANOMALY":284.4866,"EPHEMERIS_TYPE":0,"CLASSIFICATION_TYPE":"U","NORAD_CAT_ID":48779,"ELEMENT_SET_NO":999,"REV_AT_EPOCH":22114,"BSTAR":2.0369639e-5,"MEAN_MOTION_DOT":2.0e-7,"MEAN_MOTION_DDOT":0},{"OBJECT_NAME":"ONEWEB-0228","OBJECT_ID":"2021-045P","EPOCH":"2025-12-22T06:17:06.553824","MEAN_MOTION":13.15547744,"ECCENTRICITY":0.00018584,"INCLINATION":87.9007,"RA_OF_ASC_NODE":294.4739,"ARG_OF_PERICENTER":73.7564,"MEAN_ANOMALY":286.3771,"EPHEMERIS_TYPE":0,"CLASSIFICATION_TYPE":"U","NORAD_CAT_ID":48780,"ELEMENT_SET_NO":999,"REV_AT_EPOCH":22106,"BSTAR":0.00011079352,"MEAN_MOTION_DOT":5.5e-7,"MEAN_MOTION_DDOT":0},{"OBJECT_NAME":"ONEWEB-0232","OBJECT_ID":"2021-045Q","EPOCH":"2025-12-22T05:40:24.470976","MEAN_MOTION":13.15548847,"ECCENTRICITY":0.00018487,"INCLINATION":87.9024,"RA_OF_ASC_NODE":294.4721,"ARG_OF_PERICENTER":74.7459,"MEAN_ANOMALY":285.3876,"EPHEMERIS_TYPE":0,"CLASSIFICATION_TYPE":"U","NORAD_CAT_ID":48781,"ELEMENT_SET_NO":999,"REV_AT_EPOCH":22138,"BSTAR":5.7404117e-5,"MEAN_MOTION_DOT":3.4e-7,"MEAN_MOTION_DDOT":0},{"OBJECT_NAME":"ONEWEB-0231","OBJECT_ID":"2021-045R","EPOCH":"2025-12-21T18:11:19.083264","MEAN_MOTION":13.15549918,"ECCENTRICITY":0.00019886,"INCLINATION":87.8992,"RA_OF_ASC_NODE":294.6094,"ARG_OF_PERICENTER":71.5925,"MEAN_ANOMALY":288.5422,"EPHEMERIS_TYPE":0,"CLASSIFICATION_TYPE":"U","NORAD_CAT_ID":48782,"ELEMENT_SET_NO":999,"REV_AT_EPOCH":22101,"BSTAR":0.0004301708,"MEAN_MOTION_DOT":1.75e-6,"MEAN_MOTION_DDOT":0},{"OBJECT_NAME":"ONEWEB-0234","OBJECT_ID":"2021-045S","EPOCH":"2025-12-22T06:03:00.931104","MEAN_MOTION":13.1554885,"ECCENTRICITY":9.763e-5,"INCLINATION":87.8999,"RA_OF_ASC_NODE":294.4839,"ARG_OF_PERICENTER":85.6195,"MEAN_ANOMALY":274.5047,"EPHEMERIS_TYPE":0,"CLASSIFICATION_TYPE":"U","NORAD_CAT_ID":48783,"ELEMENT_SET_NO":999,"REV_AT_EPOCH":22121,"BSTAR":-0.0003282172,"MEAN_MOTION_DOT":-1.11e-6,"MEAN_MOTION_DDOT":0},{"OBJECT_NAME":"ONEWEB-0238","OBJECT_ID":"2021-045T","EPOCH":"2025-12-22T06:03:25.155936","MEAN_MOTION":13.1554931,"ECCENTRICITY":0.00012856,"INCLINATION":87.9,"RA_OF_ASC_NODE":294.4766,"ARG_OF_PERICENTER":77.0042,"MEAN_ANOMALY":283.1232,"EPHEMERIS_TYPE":0,"CLASSIFICATION_TYPE":"U","NORAD_CAT_ID":48784,"ELEMENT_SET_NO":999,"REV_AT_EPOCH":22111,"BSTAR":-0.00040579711,"MEAN_MOTION_DOT":-1.4e-6,"MEAN_MOTION_DDOT":0}]
